STARLINK-37165
1 68287U 26055AB  26092.83335647 -.01490271  00000+0 -80263-2 0  9993
2 68287  53.1583 216.0712 0001086  82.9804 260.4624 15.82219668  3514
STARLINK-37010
1 68289U 26055AD  26092.83335647 -.01504449  00000+0 -81081-2 0  9997
2 68289  53.1583 216.0622 0000869  83.3646 264.3411 15.82234673  3513
